IRIDIUM 33 DEB          
1 38474U 97051AAB 24315.91577809  .00008853  00000+0  23841-2 0  9992
2 38474  86.3464 182.5416 0026527 337.1636  22.8386 14.47676600806405
IRIDIUM 33 DEB          
1 38477U 97051AAE 24315.09186608  .00036230  00000+0  29584-1 0  9996
2 38477  86.4072 251.6412 0422319 302.9794  53.1420 13.54985939712814
IRIDIUM 33 DEB          
1 39777U 97051AAJ 24320.40674144  .00012441  00000+0  34766-2 0  9995
2 39777  85.9647   4.0216 0072686  61.3020 299.5461 14.44544490544949
IRIDIUM 33 DEB          
1 39778U 97051AAK 24321.45628146  .00006680  00000+0  17335-2 0  9994
2 39778  86.3843 212.3669 0005581 263.8463  96.2105 14.49622554577383
IRIDIUM 33 DEB          
1 39781U 97051AAN 24321.53806539  .00018770  00000+0  87695-2 0  9990
2 39781  86.3684  57.9960 0198085  69.9209 303.6015 14.10426095666814
IRIDIUM 33 DEB          
1 39783U 97051AAQ 24311.67826559  .00102640  00000+0  16987-1 0  9995
2 39783  86.1599  92.1032 0034639 147.3803 225.1699 14.69327846663029
IRIDIUM 33 DEB          
1 40996U 97051ABJ 24320.37576104  .00025631  00000+0  40347-2 0  9990
2 40996  86.3702 180.9178 0013007 358.1713 175.5481 14.72322667566692
IRIDIUM 33 DEB          
1 46734U 97051ABR 24306.92286301  .00010816  00000+0  35364-2 0  9990
2 46734  86.2696 180.4406 0041697 226.1395 145.5285 14.37947560571695
IRIDIUM 33 DEB          
1 46965U 97051ABX 24321.51439705  .00005879  00000+0  13292-2 0  9995
2 46965  86.3389 153.6081 0019689 207.5490 182.1841 14.55969348565659
IRIDIUM 33 DEB          
1 46971U 97051ACD 24307.35559112  .00041944  00000+0  63187-2 0  9994
2 46971  86.3438 159.8326 0011519 282.3744 256.8978 14.74153598582111
IRIDIUM 33 DEB          
1 46974U 97051ACG 24319.14927487  .00021186  00000+0  71975-2 0  9991
2 46974  86.3090 275.3911 0114641  39.7798 321.1732 14.32846440518476
IRIDIUM 33 DEB          
1 46979U 97051ACM 24317.04619498  .00038291  00000+0  76057-2 0  9994
2 46979  86.3491 227.7061 0042660 163.3770 196.8852 14.61382919295973
